{
  "type": "FeatureCollection",
  "features": [
    {
      "type": "Feature",
      "properties": {
        "norad_id": 66372,
        "name": "STARLINK-35821",
        "group": "last-30-days",
        "lat": -49.34269998981272,
        "lon": -162.95300273125235,
        "alt_km": 351.754729135504,
        "timestamp": "2025-12-04T09:47:36.300968+00:00",
        "meta_object_name": "STARLINK-35821",
        "meta_object_id": "2025-254AA",
        "meta_epoch": "2025-12-04T02:38:09.425184",
        "meta_mean_motion": 15.74311986,
        "meta_eccentricity": 0.0001894,
        "meta_inclination": 53.1567,
        "meta_ra_of_asc_node": 317.7113,
        "meta_arg_of_pericenter": 102.3262,
        "meta_mean_anomaly": 257.797,
        "meta_ephemeris_type": 0,
        "meta_classification_type": "U",
        "meta_norad_cat_id": 66372,
        "meta_element_set_no": 999,
        "meta_rev_at_epoch": 432,
        "meta_bstar": 0.0023713,
        "meta_mean_motion_dot": 0.00364005,
        "meta_mean_motion_ddot": 0,
        "tle_line1": "1 66372U 25254AA  25338.10983131  .00364005  00000+0  23713-2 0  9994",
        "tle_line2": "2 66372  53.1567 317.7113 0001894 102.3262 257.7970 15.74311986  4325"
      },
      "geometry": {
        "type": "Point",
        "coordinates": [
          -162.95300273125235,
          -49.34269998981272
        ]
      }
    },
    {
      "type": "Feature",
      "properties": {
        "norad_id": 66373,
        "name": "STARLINK-35809",
        "group": "last-30-days",
        "lat": -50.7127608967921,
        "lon": -157.3560260013214,
        "alt_km": 351.2111100798047,
        "timestamp": "2025-12-04T09:47:36.300978+00:00",
        "meta_object_name": "STARLINK-35809",
        "meta_object_id": "2025-254AB",
        "meta_epoch": "2025-12-04T02:37:11.292672",
        "meta_mean_motion": 15.74358169,
        "meta_eccentricity": 0.0001053,
        "meta_inclination": 53.1566,
        "meta_ra_of_asc_node": 317.7054,
        "meta_arg_of_pericenter": 75.9118,
        "meta_mean_anomaly": 284.2018,
        "meta_ephemeris_type": 0,
        "meta_classification_type": "U",
        "meta_norad_cat_id": 66373,
        "meta_element_set_no": 999,
        "meta_rev_at_epoch": 432,
        "meta_bstar": 0.0026661,
        "meta_mean_motion_dot": 0.00412582,
        "meta_mean_motion_ddot": 0,
        "tle_line1": "1 66373U 25254AB  25338.10915848  .00412582  00000+0  26661-2 0  9994",
        "tle_line2": "2 66373  53.1566 317.7054 0001053  75.9118 284.2018 15.74358169  4323"
      },
      "geometry": {
        "type": "Point",
        "coordinates": [
          -157.3560260013214,
          -50.7127608967921
        ]
      }
    },
    {
      "type": "Feature",
      "properties": {
        "norad_id": 66374,
        "name": "STARLINK-35831",
        "group": "last-30-days",
        "lat": -51.30903546284495,
        "lon": -154.35539880619697,
        "alt_km": 351.6720450830826,
        "timestamp": "2025-12-04T09:47:36.300988+00:00",
        "meta_object_name": "STARLINK-35831",
        "meta_object_id": "2025-254AC",
        "meta_epoch": "2025-12-04T02:36:41.952096",
        "meta_mean_motion": 15.74376092,
        "meta_eccentricity": 0.0002461,
        "meta_inclination": 53.1567,
        "meta_ra_of_asc_node": 317.7024,
        "meta_arg_of_pericenter": 116.307,
        "meta_mean_anomaly": 243.8203,
        "meta_ephemeris_type": 0,
        "meta_classification_type": "U",
        "meta_norad_cat_id": 66374,
        "meta_element_set_no": 999,
        "meta_rev_at_epoch": 432,
        "meta_bstar": 0.0028555,
        "meta_mean_motion_dot": 0.00443929,
        "meta_mean_motion_ddot": 0,
        "tle_line1": "1 66374U 25254AC  25338.10881889  .00443929  00000+0  28555-2 0  9995",
        "tle_line2": "2 66374  53.1567 317.7024 0002461 116.3070 243.8203 15.74376092  4325"
      },
      "geometry": {
        "type": "Point",
        "coordinates": [
          -154.35539880619697,
          -51.30903546284495
        ]
      }
    },
    {
      "type": "Feature",
      "properties": {
        "norad_id": 66375,
        "name": "STARLINK-35826",
        "group": "last-30-days",
        "lat": -51.77079712266452,
        "lon": -151.63708697134604,
        "alt_km": 351.64088262080895,
        "timestamp": "2025-12-04T09:47:36.300999+00:00",
        "meta_object_name": "STARLINK-35826",
        "meta_object_id": "2025-254AD",
        "meta_epoch": "2025-12-04T02:36:12.919104",
        "meta_mean_motion": 15.74307679,
        "meta_eccentricity": 0.0001369,
        "meta_inclination": 53.1565,
        "meta_ra_of_asc_node": 317.7005,
        "meta_arg_of_pericenter": 116.471,
        "meta_mean_anomaly": 243.645,
        "meta_ephemeris_type": 0,
        "meta_classification_type": "U",
        "meta_norad_cat_id": 66375,
        "meta_element_set_no": 999,
        "meta_rev_at_epoch": 432,
        "meta_bstar": 0.0017206,
        "meta_mean_motion_dot": 0.00260646,
        "meta_mean_motion_ddot": 0,
        "tle_line1": "1 66375U 25254AD  25338.10848286  .00260646  00000+0  17206-2 0  9994",
        "tle_line2": "2 66375  53.1565 317.7005 0001369 116.4710 243.6450 15.74307679  4328"
      },
      "geometry": {
        "type": "Point",
        "coordinates": [
          -151.63708697134604,
          -51.77079712266452
        ]
      }
    },
    {
      "type": "Feature",
      "properties": {
        "norad_id": 66376,
        "name": "SHIYAN-32 01",
        "group": "last-30-days",
        "lat": 48.63065839185687,
        "lon": -83.4068595636054,
        "alt_km": 427.175512033572,
        "timestamp": "2025-12-04T09:47:36.301022+00:00",
        "meta_object_name": "SHIYAN-32 01",
        "meta_object_id": "2025-255A",
        "meta_epoch": "2025-12-04T03:16:16.027104",
        "meta_mean_motion": 15.42333448,
        "meta_eccentricity": 0.00135,
        "meta_inclination": 52.9964,
        "meta_ra_of_asc_node": 218.9715,
        "meta_arg_of_pericenter": 15.4644,
        "meta_mean_anomaly": 344.677,
        "meta_ephemeris_type": 0,
        "meta_classification_type": "U",
        "meta_norad_cat_id": 66376,
        "meta_element_set_no": 999,
        "meta_rev_at_epoch": 402,
        "meta_bstar": 0.00088087,
        "meta_mean_motion_dot": 0.00038455,
        "meta_mean_motion_ddot": 0,
        "tle_line1": "1 66376U 25255A   25338.13629661  .00038455  00000+0  88087-3 0  9990",
        "tle_line2": "2 66376  52.9964 218.9715 0013500  15.4644 344.6770 15.42333448  4025"
      },
      "geometry": {
        "type": "Point",
        "coordinates": [
          -83.4068595636054,
          48.63065839185687
        ]
      }
    },
    {
      "type": "Feature",
      "properties": {
        "norad_id": 66377,
        "name": "CZ-11 DEB",
        "group": "last-30-days",
        "lat": 30.297075786911922,
        "lon": 11.393356648132654,
        "alt_km": 437.2020317290426,
        "timestamp": "2025-12-04T09:47:36.301035+00:00",
        "meta_object_name": "CZ-11 DEB",
        "meta_object_id": "2025-255B",
        "meta_epoch": "2025-12-04T02:58:17.997024",
        "meta_mean_motion": 15.43632968,
        "meta_eccentricity": 0.0013888,
        "meta_inclination": 52.9959,
        "meta_ra_of_asc_node": 218.893,
        "meta_arg_of_pericenter": 13.2054,
        "meta_mean_anomaly": 346.9311,
        "meta_ephemeris_type": 0,
        "meta_classification_type": "U",
        "meta_norad_cat_id": 66377,
        "meta_element_set_no": 999,
        "meta_rev_at_epoch": 388,
        "meta_bstar": 0.0016437,
        "meta_mean_motion_dot": 0.0007574,
        "meta_mean_motion_ddot": 0,
        "tle_line1": "1 66377U 25255B   25338.12381941  .00075740  00000+0  16437-2 0  9993",
        "tle_line2": "2 66377  52.9959 218.8930 0013888  13.2054 346.9311 15.43632968  3887"
      },
      "geometry": {
        "type": "Point",
        "coordinates": [
          11.393356648132654,
          30.297075786911922
        ]
      }
    },
    {
      "type": "Feature",
      "properties": {
        "norad_id": 66378,
        "name": "SHIYAN-32 02",
        "group": "last-30-days",
        "lat": 6.970944273707566,
        "lon": 32.189526794218146,
        "alt_km": 441.27174291679694,
        "timestamp": "2025-12-04T09:47:36.301049+00:00",
        "meta_object_name": "SHIYAN-32 02",
        "meta_object_id": "2025-255C",
        "meta_epoch": "2025-12-03T22:10:57.914688",
        "meta_mean_motion": 15.44186746,
        "meta_eccentricity": 0.00124047,
        "meta_inclination": 52.9963,
        "meta_ra_of_asc_node": 219.7855,
        "meta_arg_of_pericenter": 11.8062,
        "meta_mean_anomaly": 348.3231,
        "meta_ephemeris_type": 0,
        "meta_classification_type": "U",
        "meta_norad_cat_id": 66378,
        "meta_element_set_no": 999,
        "meta_rev_at_epoch": 385,
        "meta_bstar": 0.0018160733,
        "meta_mean_motion_dot": 0.00085363,
        "meta_mean_motion_ddot": 0,
        "tle_line1": "1 66378U 25255C   25337.92428142  .00085363  00000+0  18161-2 0  9994",
        "tle_line2": "2 66378  52.9963 219.7855 0012404  11.8062 348.3231 15.44186746  3858"
      },
      "geometry": {
        "type": "Point",
        "coordinates": [
          32.189526794218146,
          6.970944273707566
        ]
      }
    }
  ]
}